NORAD_CAT_ID,OBJECT_NAME,OBJECT_TYPE,EPOCH,MEAN_MOTION,ECCENTRICITY,INCLINATION,RA_OF_ASC_NODE,ARG_OF_PERICENTER,MEAN_ANOMALY,BSTAR,MEAN_MOTION_DOT,MEAN_MOTION_DDOT,TLE_LINE0,TLE_LINE1,TLE_LINE2,SEMIMAJOR_AXIS,PERIOD,APOGEE,PERIGEE,DECAYED
51146.0,STARLINK-3354,PAYLOAD,2023-11-27 14:41:53,15.08821796,0.0001003,53.2175,78.9555,97.8704,262.2402,-0.0001284,-2.33e-05,0.0,0 STARLINK-3354,1 51146U 22005AU  23331.61242669 -.00002330  00000-0 -12840-3 0  9992,2 51146  53.2175  78.9555 0001003  97.8704 262.2402 15.08821796102963,6917.936,95.439,540.495,539.107,0.0
51146.0,STARLINK-3354,PAYLOAD,2023-11-27 16:17:16,15.08822818,0.0001024,53.2175,78.6582,108.9686,251.1417,-0.00011349,-2.093e-05,0.0,0 STARLINK-3354,1 51146U 22005AU  23331.67866642 -.00002093  00000-0 -11349-3 0  9990,2 51146  53.2175  78.6582 0001024 108.9686 251.1417 15.08822818102976,6917.933,95.439,540.506,539.09,0.0
51146.0,STARLINK-3354,PAYLOAD,2023-11-28 11:21:53,15.08846583,0.0001122,53.2184,75.093,49.3191,310.7899,-9.7029e-06,-4.42e-06,0.0,0 STARLINK-3354,1 51146U 22005AU  23332.47353879 -.00000442  00000-0 -97029-5 0  9999,2 51146  53.2184  75.0930 0001122  49.3191 310.7899 15.08846583104212,6917.86,95.437,540.501,538.949,0.0
51146.0,STARLINK-3354,PAYLOAD,2023-11-28 14:32:39,15.08862241,0.0001029,53.2179,74.4971,82.5817,277.5292,0.00029939,4.483e-05,0.0,0 STARLINK-3354,1 51146U 22005AU  23332.60600799  .00004483  00000-0  29939-3 0  9990,2 51146  53.2179  74.4971 0001029  82.5817 277.5292 15.08862241103118,6917.812,95.436,540.389,538.966,0.0
51146.0,STARLINK-3354,PAYLOAD,2023-11-29 11:12:41,15.08837614,0.0001035,53.2179,70.6384,128.2809,231.8276,0.00021499,3.135e-05,0.0,0 STARLINK-3354,1 51146U 22005AU  23333.46714649  .00003135  00000-0  21499-3 0  9991,2 51146  53.2179  70.6384 0001035 128.2809 231.8276 15.08837614104369,6917.888,95.438,540.469,539.037,0.0
51146.0,STARLINK-3354,PAYLOAD,2023-11-29 14:23:27,15.08842177,0.0001142,53.2185,70.0413,81.5709,278.5412,0.00026793,3.979e-05,0.0,0 STARLINK-3354,1 51146U 22005AU  23333.59962645  .00003979  00000-0  26793-3 0  9994,2 51146  53.2185  70.0413 0001142  81.5709 278.5412 15.08842177103260,6917.874,95.437,540.529,538.949,0.0
51146.0,STARLINK-3354,PAYLOAD,2023-11-30 12:38:51,15.08849114,0.0001442,53.2191,65.8804,60.4617,299.6518,-4.831e-06,-3.65e-06,0.0,0 STARLINK-3354,1 51146U 22005AU  23334.52698449 -.00000365  00000-0 -48310-5 0  9995,2 51146  53.2191  65.8804 0001442  60.4617 299.6518 15.08849114104529,6917.853,95.437,540.715,538.72,0.0
51146.0,STARLINK-3354,PAYLOAD,2023-12-01 10:54:15,15.08842936,0.0001282,53.2183,61.7188,82.9389,277.1749,7.0862e-05,8.4e-06,0.0,0 STARLINK-3354,1 51146U 22005AU  23335.45434835  .00000840  00000-0  70862-4 0  9997,2 51146  53.2183  61.7188 0001282  82.9389 277.1749 15.08842936104664,6917.871,95.437,540.623,538.85,0.0
51146.0,STARLINK-3354,PAYLOAD,2023-12-01 12:29:38,15.08847174,0.0001401,53.2188,61.4182,116.6892,243.4243,0.00011658,1.568e-05,0.0,0 STARLINK-3354,1 51146U 22005AU  23335.52058426  .00001568  00000-0  11658-3 0  9998,2 51146  53.2188  61.4182 0001401 116.6892 243.4243 15.08847174103558,6917.858,95.437,540.693,538.754,0.0
51146.0,STARLINK-3354,PAYLOAD,2023-12-02 10:45:00,15.0887848,0.0001438,53.2188,57.2537,97.3827,262.7328,0.0007116,0.00011067,0.0,0 STARLINK-3354,1 51146U 22005AU  23336.44792778  .00011067  00000-0  71160-3 0  9994,2 51146  53.2188  57.2537 0001438  97.3827 262.7328 15.08878480104810,6917.763,95.435,540.623,538.633,0.0
51146.0,STARLINK-3354,PAYLOAD,2023-12-03 12:11:14,15.08799453,0.0001602,53.2187,52.4933,110.7015,249.4149,-0.00036044,-6.013e-05,0.0,0 STARLINK-3354,1 51146U 22005AU  23337.50780844 -.00006013  00000-0 -36044-3 0  9992,2 51146  53.2187  52.4933 0001602 110.7015 249.4149 15.08799453104970,6918.004,95.44,540.978,538.761,0.0
51146.0,STARLINK-3354,PAYLOAD,2023-12-04 10:26:39,15.08835844,0.0001928,53.2189,48.3334,112.1529,247.9668,0.0014602,0.00023025,0.0,0 STARLINK-3354,1 51146U 22005AU  23338.43517462  .00023025  00000-0  14602-2 0  9994,2 51146  53.2189  48.3334 0001928 112.1529 247.9668 15.08835844105119,6917.893,95.438,541.092,538.424,0.0
51146.0,STARLINK-3354,PAYLOAD,2023-12-05 11:52:48,15.088545,0.0001398,53.2177,43.5772,92.1559,267.9593,0.00027955,4.166e-05,0.0,0 STARLINK-3354,1 51146U 22005AU  23339.49500611  .00004166  00000-0  27955-3 0  9990,2 51146  53.2177  43.5772 0001398  92.1559 267.9593 15.08854500105276,6917.836,95.437,540.668,538.734,0.0
51146.0,STARLINK-3354,PAYLOAD,2023-12-05 13:28:11,15.0886036,0.0001343,53.2172,43.2776,101.0034,259.1109,0.00073228,0.00011392,0.0,0 STARLINK-3354,1 51146U 22005AU  23339.56124312  .00011392  00000-0  73228-3 0  9991,2 51146  53.2172  43.2776 0001343 101.0034 259.1109 15.08860360104164,6917.818,95.436,540.612,538.754,0.0
51146.0,STARLINK-3354,PAYLOAD,2023-12-05 15:03:34,15.08860503,0.0001363,53.2174,42.982,86.5176,273.5972,0.0018934,0.00029991,0.0,0 STARLINK-3354,1 51146U 22005AU  23339.62748518  .00029991  00000-0  18934-2 0  9994,2 51146  53.2174  42.9820 0001363  86.5176 273.5972 15.08860503105290,6917.818,95.436,540.626,538.74,0.0
51146.0,STARLINK-3354,PAYLOAD,2023-12-06 03:46:39,15.08858073,0.0001523,53.2179,40.6003,96.1009,264.0157,0.00073359,0.00011412,0.0,0 STARLINK-3354,1 51146U 22005AU  23340.15740127  .00011412  00000-0  73359-3 0  9994,2 51146  53.2179  40.6003 0001523  96.1009 264.0157 15.08858073105371,6917.825,95.436,540.744,538.637,0.0
51146.0,STARLINK-3354,PAYLOAD,2023-12-06 11:43:34,15.08867692,0.0001441,53.2169,39.115,91.5891,268.5266,0.00076283,0.00011882,0.0,0 STARLINK-3354,1 51146U 22005AU  23340.48859494  .00011882  00000-0  76283-3 0  9998,2 51146  53.2169  39.1150 0001441  91.5891 268.5266 15.08867692104302,6917.796,95.436,540.658,538.664,0.0
51146.0,STARLINK-3354,PAYLOAD,2023-12-07 11:34:21,15.08842949,0.0001467,53.2173,34.6548,91.5497,268.5663,6.346e-05,7.22e-06,0.0,0 STARLINK-3354,1 51146U 22005AU  23341.48219529  .00000722  00000-0  63460-4 0  9993,2 51146  53.2173  34.6548 0001467  91.5497 268.5663 15.08842949105577,6917.871,95.437,540.751,538.722,0.0
51146.0,STARLINK-3354,PAYLOAD,2023-12-07 13:09:44,15.0884782,0.0001363,53.2175,34.3576,96.213,263.9017,0.00012265,1.665e-05,0.0,0 STARLINK-3354,1 51146U 22005AU  23341.54843405  .00001665  00000-0  12265-3 0  9999,2 51146  53.2175  34.3576 0001363  96.2130 263.9017 15.08847820104460,6917.856,95.437,540.664,538.779,0.0
51146.0,STARLINK-3354,PAYLOAD,2023-12-08 03:28:14,15.08803739,0.000196,53.2179,31.6839,84.2294,275.8922,-0.00051045,-8.395e-05,0.0,0 STARLINK-3354,1 51146U 22005AU  23342.14461627 -.00008395  00000-0 -51045-3 0  9996,2 51146  53.2179  31.6839 0001960  84.2294 275.8922 15.08803739105679,6917.991,95.44,541.212,538.5,0.0
51146.0,STARLINK-3354,PAYLOAD,2023-12-08 09:49:47,15.08831751,0.0001499,53.2185,30.492,99.6884,260.4277,0.0007156,0.00011117,0.0,0 STARLINK-3354,1 51146U 22005AU  23342.40957486  .00011117  00000-0  71560-3 0  9996,2 51146  53.2185  30.4920 0001499  99.6884 260.4277 15.08831751105719,6917.906,95.438,540.808,538.734,0.0
51146.0,STARLINK-3354,PAYLOAD,2023-12-09 09:40:33,15.08876381,0.0001452,53.218,26.0323,85.9194,274.1964,0.00087542,0.00013686,0.0,0 STARLINK-3354,1 51146U 22005AU  23343.40316326  .00013686  00000-0  87542-3 0  9999,2 51146  53.2180  26.0323 0001452  85.9194 274.1964 15.08876381105862,6917.769,95.435,540.639,538.63,0.0
51146.0,STARLINK-3354,PAYLOAD,2023-12-09 12:51:19,15.08885728,0.0001419,53.2175,25.4358,93.4047,266.7108,0.001073,0.00016851,0.0,0 STARLINK-3354,1 51146U 22005AU  23343.53563806  .00016851  00000-0  10730-2 0  9991,2 51146  53.2175  25.4358 0001419  93.4047 266.7108 15.08885728104761,6917.741,95.435,540.587,538.624,0.0
51146.0,STARLINK-3354,PAYLOAD,2023-12-10 12:42:04,15.08882867,0.0001875,53.2185,20.9773,61.5956,298.5225,0.00073932,0.00011512,0.0,0 STARLINK-3354,1 51146U 22005AU  23344.52922104  .00011512  00000-0  73932-3 0  9994,2 51146  53.2185  20.9773 0001875  61.5956 298.5225 15.08882867104915,6917.749,95.435,540.911,538.317,0.0
51146.0,STARLINK-3354,PAYLOAD,2023-12-11 09:22:06,15.08825272,0.0001315,53.2171,17.1083,98.4173,261.6968,4.4709e-05,4.23e-06,0.0,0 STARLINK-3354,1 51146U 22005AU  23345.39034893  .00000423  00000-0  44709-4 0  9999,2 51146  53.2171  17.1083 0001315  98.4173 261.6968 15.08825272106162,6917.925,95.438,540.7,538.881,0.0
51146.0,STARLINK-3354,PAYLOAD,2023-12-12 07:37:30,15.08834178,0.000138,53.2174,12.9494,100.8331,259.2816,0.00051458,7.91e-05,0.0,0 STARLINK-3354,1 51146U 22005AU  23346.31771926  .00007910  00000-0  51458-3 0  9993,2 51146  53.2174  12.9494 0001380 100.8331 259.2816 15.08834178105181,6917.898,95.438,540.718,538.809,0.0
51146.0,STARLINK-3354,PAYLOAD,2023-12-13 07:28:18,15.08841625,0.0001361,53.2169,8.4879,97.5636,262.5511,0.00034005,5.128e-05,0.0,0 STARLINK-3354,1 51146U 22005AU  23347.31132102  .00005128  00000-0  34005-3 0  9999,2 51146  53.2169   8.4879 0001361  97.5636 262.5511 15.08841625106456,6917.875,95.437,540.682,538.799,0.0
51146.0,STARLINK-3354,PAYLOAD,2023-12-14 08:54:28,15.08846296,0.0001406,53.2167,3.7309,94.7231,265.3922,0.00027927,4.16e-05,0.0,0 STARLINK-3354,1 51146U 22005AU  23348.37116069  .00004160  00000-0  27927-3 0  9990,2 51146  53.2167   3.7309 0001406  94.7231 265.3922 15.08846296106614,6917.861,95.437,540.699,538.753,0.0
51146.0,STARLINK-3354,PAYLOAD,2023-12-14 23:12:56,15.08837972,0.0001539,53.2168,1.0624,85.9632,274.1536,8.1747e-05,1.013e-05,0.0,0 STARLINK-3354,1 51146U 22005AU  23348.96732588  .00001013  00000-0  81747-4 0  9990,2 51146  53.2168   1.0624 0001539  85.9632 274.1536 15.08837972106700,6917.887,95.438,540.816,538.687,0.0
51146.0,STARLINK-3354,PAYLOAD,2023-12-15 07:09:52,15.08840262,0.0001539,53.217,359.5729,86.6443,273.4726,9.9152e-05,1.29e-05,0.0,0 STARLINK-3354,1 51146U 22005AU  23349.29852565  .00001290  00000-0  99152-4 0  9991,2 51146  53.2170 359.5729 0001539  86.6443 273.4726 15.08840262105638,6917.88,95.438,540.809,538.68,0.0
